UNKNOWN                 
1 83903U          25338.81269830 -.00000348  00000+0  00000+0 0  9995
2 83903   6.2048 290.6915 0124219 251.2778 320.4812  0.99116432 43583
UNKNOWN                 
1 83934U          25339.13936141  .00000022  00000+0  00000+0 0  9999
2 83934   5.8012 297.5603 0233398 273.0738 259.5020  1.02660194 45208
UNKNOWN                 
1 83970U          25339.33117767  .00009309  00000+0  10226-1 0  9996
2 83970  18.2474 227.6571 5069956 128.9102 288.3990  5.31911240195817
UNKNOWN                 
1 84006U          25324.45185551 -.00000031  00000+0  00000+0 0  9991
2 84006  22.4931 182.0614 6142325  52.9351 348.9531  2.16233459 83741
UNKNOWN                 
1 84188U          25337.90114779  .00620718  00000+0  36195+0 0  9993
2 84188  65.1680 265.5644 3819721  19.6844 351.8123  7.47103747 40605
UNKNOWN                 
1 84232U          25337.06095545  .00008706  00000+0  69553-2 0  9993
2 84232  20.3388 279.7937 6563115  54.3669 350.3487  3.16969337104382
UNKNOWN                 
1 84236U          25335.56352231  .00000147  00000+0  20940-2 0  9996
2 84236   9.4487 340.0057 6895470  84.4337 344.2430  2.62508844113682
UNKNOWN                 
1 84292U          25339.12908510  .00005335  00000+0  29252-2 0  9990
2 84292  23.8267 170.8620 4565340 221.6867  92.6842  6.21434644227598
UNKNOWN                 
1 84406U          25319.66311418  .00001001  00000+0  54538-2 0  9990
2 84406 101.7190 103.4592 0042237  96.4823 287.3910 12.67280566 45863
UNKNOWN                 
1 84407U          25335.27605392 -.00000030  00000+0  14263-1 0  9995
2 84407  19.5050 325.8606 7202279  55.7127 352.9734  2.05761539 75633
UNKNOWN                 
1 84575U          25317.29008802  .00000003  00000+0  55560-2 0  9991
2 84575  18.1423 168.0879 7100831   4.7522 359.5966  2.19885596 64814
UNKNOWN                 
1 84932U          25339.53684220  .00001217  00000+0  96883-2 0  9994
2 84932   2.0816 249.4991 6574863  46.0632 106.9083  2.99931945131567
UNKNOWN                 
1 85004U          25338.67005543  .00001964  00000+0  61566-3 0  9994
2 85004  98.4205 309.8310 0046724 185.3638 352.0344 14.41058537629734
UNKNOWN                 
1 85010U          25337.39517847  .00001533  00000+0  16466-2 0  9994
2 85010  99.2484 199.5930 0026602 280.8413 258.7765 13.75017951602636
UNKNOWN                 
1 85015U          25337.94678410  .00001069  00000+0  21766-3 0  9998
2 85015  74.0495  55.0314 0016262 320.8397  39.1592 14.62272567641324
UNKNOWN                 
1 85023U          25339.28025672  .00051836  00000+0  78873-2 0  9999
2 85023  99.8506 353.1912 0002377 359.8138  66.0905 14.73715420627732
UNKNOWN                 
1 85027U          25336.82789085  .00000297  00000+0  35576-3 0  9994
2 85027  66.0397 125.7800 0178453 195.8355 163.7087 13.74236087603251
UNKNOWN                 
1 85047U          25337.11056085  .00020753  00000+0  33640-1 0  9993
2 85047 102.2110 300.5306 0150879  25.0094 335.8242 13.43716701575366
UNKNOWN                 
1 85061U          25337.43379163  .00003745  00000+0  15074-1 0  9992
2 85061 102.3973 320.3963 0263085 212.6290 304.0405 12.76918661554590
UNKNOWN                 
1 85100U          25338.48162932  .00000743  00000+0  24049-3 0  9995
2 85100  74.0457 238.0513 0011351 111.1349  67.5711 14.40700016632153
UNKNOWN                 
1 85106U          25339.55181211  .00001044  00000+0  11857-2 0  9998
2 85106 100.0571  80.0581 0009654  34.4561 344.3933 13.72885313602081
UNKNOWN                 
1 85151U          25336.34668982  .00026879  00000+0  37328-2 0  9991
2 85151  98.4036 199.9347 0006750 167.4027 192.7352 14.77828784477990
UNKNOWN                 
1 85210U          25339.34289839  .00001195  00000+0  11682-2 0  9999
2 85210  99.8557 120.1286 0216438 333.1781  54.9396 13.71514880601147
UNKNOWN                 
1 85217U          25338.50853839  .00009624  00000+0  25268-2 0  9990
2 85217  98.0321  73.4456 0209150 153.1059 208.1155 14.37102692626672
UNKNOWN                 
1 85237U          25337.13567881  .00012532  00000+0  26354-2 0  9998
2 85237  65.5353 240.1163 0512357  32.0566 331.0605 14.00711508607004
UNKNOWN                 
1 85238U          25339.57629241  .00000091  00000+0  11068-3 0  9992
2 85238  99.0610 268.9628 0062682 219.4871 315.5593 13.88340331609842
UNKNOWN                 
1 85246U          25339.30203611  .00003955  00000+0  14209-2 0  9992
2 85246  97.9861 343.4965 0222712 326.2208  32.4947 14.21454206622019
UNKNOWN                 
1 85373U          25336.91821851  .00003030  00000+0  20761-2 0  9993
2 85373 100.4275  11.6439 0050871 262.7755 221.3745 13.99927178610755
UNKNOWN                 
1 87014U          25337.70145963  .00003167  00000+0  48726-2 0  9990
2 87014 100.4934 301.4869 0051393 269.1055 271.8492 13.51801081589691
UNKNOWN                 
1 87029U          25336.55533337  .00001234  00000+0  77827-3 0  9992
2 87029  98.7581  12.1757 0081014 278.7103  80.4895 14.04451333591570
UNKNOWN                 
1 87042U          25339.56801537  .00001467  00000+0  89411-3 0  9991
2 87042  98.7156  23.0403 0044319 115.6152 244.9606 14.07090621552950
UNKNOWN                 
1 87051U          25337.24101874  .00001335  00000+0  48221-3 0  9999
2 87051  65.7285 276.9656 0715599 145.7618 219.1793 13.45809196587306
UNKNOWN                 
1 87054U          25338.50273833  .00004170  00000+0  23475-2 0  9990
2 87054 100.0928 216.9128 0013914   6.9502 353.1856 14.11005251615165
UNKNOWN                 
1 87071U          25339.29901068  .00007375  00000+0  26480-2 0  9993
2 87071  61.2212 293.9383 0478800 233.7825 121.8040 13.85541219601454
UNKNOWN                 
1 87129U          25337.18793910  .00000174  00000+0  15886-2 0  9996
2 87129 102.2628  68.0410 0031323 108.7500 251.6967 12.42810900545481
UNKNOWN                 
1 87159U          25336.51659678  .00001561  00000+0  18214-2 0  9996
2 87159  90.3494  69.0344 0103728 286.3440  72.6334 13.66020359555291
UNKNOWN                 
1 87163U          25338.05932585  .00006505  00000+0  19713-2 0  9991
2 87163  65.6020 257.7132 0642265  68.5187 298.3087 13.63827077576338
UNKNOWN                 
1 87164U          25339.28898524  .00008848  00000+0  18102-2 0  9995
2 87164  65.2043 349.3470 0097707  57.8587 303.1947 14.58267661634688
UNKNOWN                 
1 87204U          25336.84090794  .00003397  00000+0  13373-2 0  9991
2 87204  98.5371 197.8581 0046688 354.1799   5.8835 14.29250333624020
UNKNOWN                 
1 87211U          25337.25375968  .00004800  00000+0  13276-2 0  9996
2 87211  99.0849 336.3889 0053036 186.6911 193.2268 14.46365543706408
UNKNOWN                 
1 87214U          25335.47388903  .00001258  00000+0  11525-2 0  9993
2 87214 100.3310 333.0349 0074460 283.0270  76.2576 13.84070396598680
UNKNOWN                 
1 87237U          25337.11267013  .00000542  00000+0  44295-3 0  9995
2 87237  99.2574  32.6170 0102523 310.4977  80.4383 13.91739122610425
UNKNOWN                 
1 87239U          25338.05919459  .00021967  00000+0  54438-2 0  9992
2 87239  82.8735  90.2386 0018441  73.8459 286.4767 14.51704390626611
UNKNOWN                 
1 87245U          25339.50530706  .00010951  00000+0  22513-2 0  9994
2 87245  65.6399  67.1629 0430841 124.8665 257.5463 14.15737061613185
UNKNOWN                 
1 87271U          25339.51864024  .00014630  00000+0  27094-2 0  9994
2 87271  65.7562 255.7084 0419591  77.4043 287.3619 14.21486142611347
UNKNOWN                 
1 87280U          25339.48266276  .00000591  00000+0  10291-2 0  9997
2 87280  64.6154 253.3222 0130108 262.2168  96.4083 13.48544698532879
UNKNOWN                 
1 87293U          25339.26162203  .00008869  00000+0  17644-2 0  9997
2 87293  65.8952 165.1158 0425970   3.7563 356.6547 14.17929212612939
UNKNOWN                 
1 87300U          25336.21153634  .00002130  00000+0  14946-2 0  9993
2 87300 100.0846 317.6154 0029058 320.3882  39.5155 13.99371742611648
UNKNOWN                 
1 87304U          25339.25418829  .00004001  00000+0  59213-3 0  9990
2 87304  74.0229 335.6148 0020513 305.9052  54.0217 14.75379537645378
UNKNOWN                 
1 87320U          25338.63333834  .00002578  00000+0  16384-2 0  9999
2 87320  66.5929 103.6094 0415095  60.0925 304.0698 13.70026755592639
UNKNOWN                 
1 87334U          25339.51834573  .00041892  00000+0  24744-1 0  9998
2 87334  89.9956 271.7183 0069929 279.2188  80.1089 14.06292424385639
UNKNOWN                 
1 87335U          25339.53286610  .00037483  00000+0  21822-1 0  9999
2 87335  89.9791 268.0371 0078238 253.0389 106.2208 14.06803658385967
UNKNOWN                 
1 87405U          25337.97113778  .00004112  00000+0  29355-2 0  9990
2 87405  82.7507  67.0371 0056913 356.1306   3.9413 13.96301402609933
UNKNOWN                 
1 87426U          25336.50608785  .00007111  00000+0  27408-2 0  9997
2 87426  65.7853   2.2953 0070111 295.4507 214.0464 14.29450454621127
UNKNOWN                 
1 87448U          25337.37347640  .00002092  00000+0  16963-2 0  9994
2 87448 100.4520 182.7392 0063371 229.3182 130.2454 13.90558941607933
UNKNOWN                 
1 87456U          25336.67532805  .00005030  00000+0  76479-3 0  9998
2 87456  65.7810 117.7031 0510508  10.1065 350.9822 14.13334104610078
UNKNOWN                 
1 87517U          25338.05908483  .00009049  00000+0  24977-2 0  9998
2 87517  65.8236 253.9700 0674822 310.5974  60.9597 13.61194966591731
UNKNOWN                 
1 87541U          25327.54206831  .00000247  00000+0  56248-3 0  9993
2 87541  99.7021 182.4244 0059883 309.5463  79.2321 13.35580885579475
UNKNOWN                 
1 87553U          25339.36210450  .00007529  00000+0  22511-2 0  9996
2 87553  65.6710  13.7307 0701241 230.7637 122.9154 13.53412677590253
